ONEWEB-0289             
1 49079U 21075E   23360.55525077  .00000042  00000+0  74689-4 0  9997
2 49079  87.9210 185.5479 0001372  92.4947 267.6342 13.17649054115204
ONEWEB-0290             
1 49080U 21075F   23360.53782683 -.00000009  00000+0 -56953-4 0  9994
2 49080  87.9187 185.5165 0001937  88.9300 271.2053 13.17659056115596
ONEWEB-0291             
1 49081U 21075G   23360.59795150  .00000187  00000+0  44727-3 0  9994
2 49081  87.9197 185.5340 0001755  91.4460 268.6872 13.17646327114615
ONEWEB-0293             
1 49082U 21075H   23360.54731892  .00000035  00000+0  56188-4 0  9990
2 49082  87.9213 185.5487 0001779  87.8251 272.3084 13.17649828114638
ONEWEB-0294             
1 49083U 21075J   23360.53629698 -.00000096  00000+0 -30172-3 0  9993
2 49083  87.8997 170.4298 0002186  85.2821 274.8557 13.12442845116042
ONEWEB-0295             
1 49084U 21075K   23360.54892428  .00000012  00000+0 -17512-5 0  9990
2 49084  87.9213 185.5213 0001819  70.3225 289.8103 13.17648344114592
ONEWEB-0296             
1 49085U 21075L   23360.51882496 -.00000517  00000+0 -14723-2 0  9991
2 49085  87.9001 170.4323 0002053  75.0418 285.0938 13.12442818116049
ONEWEB-0297             
1 49086U 21075M   23360.55058364 -.00002365  00000+0 -66089-2 0  9990
2 49086  87.9006 170.4187 0001416  94.0435 266.0855 13.12452666116651
